BEIDOU-2 IGSO-3-C08
1 37384U 11013A   23124.30183367 -.00000198  00000+0  00000+0 0  9991
2 37384  60.7619  51.0960 0022286 185.7495 200.8573  1.00270169 44241
